[{"OBJECT_NAME":"STARLINK-36144","OBJECT_ID":"2026-033J","EPOCH":"2026-03-16T20:00:01.999008","MEAN_MOTION":15.56474637,"ECCENTRICITY":0.0001496,"INCLINATION":42.9998,"RA_OF_ASC_NODE":228.3582,"ARG_OF_PERICENTER":288.2487,"MEAN_ANOMALY":214.4117,"EPHEMERIS_TYPE":0,"CLASSIFICATION_TYPE":"U","NORAD_CAT_ID":67829,"ELEMENT_SET_NO":999,"REV_AT_EPOCH":581,"BSTAR":-0.028675,"MEAN_MOTION_DOT":-0.01847461,"MEAN_MOTION_DDOT":0},{"OBJECT_NAME":"STARLINK-36611","OBJECT_ID":"2026-033K","EPOCH":"2026-03-16T20:00:01.999008","MEAN_MOTION":15.58640406,"ECCENTRICITY":0.0001331,"INCLINATION":43.0003,"RA_OF_ASC_NODE":228.2347,"ARG_OF_PERICENTER":284.914,"MEAN_ANOMALY":267.5046,"EPHEMERIS_TYPE":0,"CLASSIFICATION_TYPE":"U","NORAD_CAT_ID":67830,"ELEMENT_SET_NO":999,"REV_AT_EPOCH":581,"BSTAR":-0.026531,"MEAN_MOTION_DOT":-0.01854682,"MEAN_MOTION_DDOT":0},{"OBJECT_NAME":"STARLINK-36661","OBJECT_ID":"2026-033L","EPOCH":"2026-03-16T20:00:01.999008","MEAN_MOTION":15.53039711,"ECCENTRICITY":0.0001625,"INCLINATION":43.0002,"RA_OF_ASC_NODE":228.5319,"ARG_OF_PERICENTER":281.695,"MEAN_ANOMALY":150.9579,"EPHEMERIS_TYPE":0,"CLASSIFICATION_TYPE":"U","NORAD_CAT_ID":67831,"ELEMENT_SET_NO":999,"REV_AT_EPOCH":581,"BSTAR":-0.027638,"MEAN_MOTION_DOT":-0.01595194,"MEAN_MOTION_DDOT":0},{"OBJECT_NAME":"STARLINK-36662","OBJECT_ID":"2026-033M","EPOCH":"2026-03-16T20:00:01.999008","MEAN_MOTION":15.80702245,"ECCENTRICITY":0.0001585,"INCLINATION":42.9996,"RA_OF_ASC_NODE":226.6122,"ARG_OF_PERICENTER":288.4631,"MEAN_ANOMALY":189.9084,"EPHEMERIS_TYPE":0,"CLASSIFICATION_TYPE":"U","NORAD_CAT_ID":67832,"ELEMENT_SET_NO":999,"REV_AT_EPOCH":581,"BSTAR":-0.0067743,"MEAN_MOTION_DOT":-0.0119361,"MEAN_MOTION_DDOT":0},{"OBJECT_NAME":"STARLINK-36659","OBJECT_ID":"2026-033N","EPOCH":"2026-03-16T18:43:57.861984","MEAN_MOTION":15.64929671,"ECCENTRICITY":0.0003264,"INCLINATION":42.999,"RA_OF_ASC_NODE":228.2847,"ARG_OF_PERICENTER":322.8861,"MEAN_ANOMALY":37.1779,"EPHEMERIS_TYPE":0,"CLASSIFICATION_TYPE":"U","NORAD_CAT_ID":67833,"ELEMENT_SET_NO":999,"REV_AT_EPOCH":574,"BSTAR":-0.0052877,"MEAN_MOTION_DOT":-0.00501826,"MEAN_MOTION_DDOT":0},{"OBJECT_NAME":"STARLINK-36655","OBJECT_ID":"2026-033P","EPOCH":"2026-03-16T20:00:01.999008","MEAN_MOTION":15.58652636,"ECCENTRICITY":0.0001307,"INCLINATION":43.0001,"RA_OF_ASC_NODE":228.2026,"ARG_OF_PERICENTER":279.0114,"MEAN_ANOMALY":286.5103,"EPHEMERIS_TYPE":0,"CLASSIFICATION_TYPE":"U","NORAD_CAT_ID":67834,"ELEMENT_SET_NO":999,"REV_AT_EPOCH":581,"BSTAR":-0.026461,"MEAN_MOTION_DOT":-0.01851097,"MEAN_MOTION_DDOT":0},{"OBJECT_NAME":"STARLINK-36657","OBJECT_ID":"2026-033Q","EPOCH":"2026-03-16T20:00:01.999008","MEAN_MOTION":15.62764963,"ECCENTRICITY":0.0001461,"INCLINATION":42.9995,"RA_OF_ASC_NODE":228.0035,"ARG_OF_PERICENTER":275.785,"MEAN_ANOMALY":9.1805,"EPHEMERIS_TYPE":0,"CLASSIFICATION_TYPE":"U","NORAD_CAT_ID":67835,"ELEMENT_SET_NO":999,"REV_AT_EPOCH":581,"BSTAR":-0.022895,"MEAN_MOTION_DOT":-0.01876477,"MEAN_MOTION_DDOT":0},{"OBJECT_NAME":"STARLINK-36650","OBJECT_ID":"2026-033R","EPOCH":"2026-03-16T20:00:01.999008","MEAN_MOTION":15.54310389,"ECCENTRICITY":0.0001556,"INCLINATION":43.0001,"RA_OF_ASC_NODE":228.4167,"ARG_OF_PERICENTER":284.4802,"MEAN_ANOMALY":194.3218,"EPHEMERIS_TYPE":0,"CLASSIFICATION_TYPE":"U","NORAD_CAT_ID":67836,"ELEMENT_SET_NO":999,"REV_AT_EPOCH":581,"BSTAR":-0.031004,"MEAN_MOTION_DOT":-0.01843142,"MEAN_MOTION_DDOT":0},{"OBJECT_NAME":"STARLINK-36649","OBJECT_ID":"2026-033S","EPOCH":"2026-03-16T20:00:01.999008","MEAN_MOTION":15.5822766,"ECCENTRICITY":0.000125,"INCLINATION":42.9999,"RA_OF_ASC_NODE":228.1909,"ARG_OF_PERICENTER":278.8566,"MEAN_ANOMALY":290.8577,"EPHEMERIS_TYPE":0,"CLASSIFICATION_TYPE":"U","NORAD_CAT_ID":67837,"ELEMENT_SET_NO":999,"REV_AT_EPOCH":581,"BSTAR":-0.026936,"MEAN_MOTION_DOT":-0.0185361,"MEAN_MOTION_DDOT":0},{"OBJECT_NAME":"STARLINK-36654","OBJECT_ID":"2026-033T","EPOCH":"2026-03-16T20:00:01.999008","MEAN_MOTION":15.56216324,"ECCENTRICITY":0.0001352,"INCLINATION":42.9997,"RA_OF_ASC_NODE":228.2861,"ARG_OF_PERICENTER":283.558,"MEAN_ANOMALY":247.533,"EPHEMERIS_TYPE":0,"CLASSIFICATION_TYPE":"U","NORAD_CAT_ID":67838,"ELEMENT_SET_NO":999,"REV_AT_EPOCH":581,"BSTAR":-0.029024,"MEAN_MOTION_DOT":-0.01851258,"MEAN_MOTION_DDOT":0},{"OBJECT_NAME":"STARLINK-36652","OBJECT_ID":"2026-033U","EPOCH":"2026-03-16T20:00:01.999008","MEAN_MOTION":15.5450709,"ECCENTRICITY":0.00015,"INCLINATION":43.0001,"RA_OF_ASC_NODE":228.373,"ARG_OF_PERICENTER":285.4728,"MEAN_ANOMALY":210.7893,"EPHEMERIS_TYPE":0,"CLASSIFICATION_TYPE":"U","NORAD_CAT_ID":67839,"ELEMENT_SET_NO":999,"REV_AT_EPOCH":581,"BSTAR":-0.030803,"MEAN_MOTION_DOT":-0.01844411,"MEAN_MOTION_DDOT":0},{"OBJECT_NAME":"STARLINK-36651","OBJECT_ID":"2026-033V","EPOCH":"2026-03-16T20:00:01.999008","MEAN_MOTION":15.56037855,"ECCENTRICITY":0.0001333,"INCLINATION":42.9998,"RA_OF_ASC_NODE":228.274,"ARG_OF_PERICENTER":283.8155,"MEAN_ANOMALY":251.8495,"EPHEMERIS_TYPE":0,"CLASSIFICATION_TYPE":"U","NORAD_CAT_ID":67840,"ELEMENT_SET_NO":999,"REV_AT_EPOCH":581,"BSTAR":-0.029223,"MEAN_MOTION_DOT":-0.01851462,"MEAN_MOTION_DDOT":0},{"OBJECT_NAME":"STARLINK-36656","OBJECT_ID":"2026-033W","EPOCH":"2026-03-16T20:00:01.999008","MEAN_MOTION":15.57137177,"ECCENTRICITY":0.0001287,"INCLINATION":42.9997,"RA_OF_ASC_NODE":228.2046,"ARG_OF_PERICENTER":283.9226,"MEAN_ANOMALY":280.0718,"EPHEMERIS_TYPE":0,"CLASSIFICATION_TYPE":"U","NORAD_CAT_ID":67841,"ELEMENT_SET_NO":999,"REV_AT_EPOCH":581,"BSTAR":-0.028044,"MEAN_MOTION_DOT":-0.01851833,"MEAN_MOTION_DDOT":0},{"OBJECT_NAME":"STARLINK-36653","OBJECT_ID":"2026-033X","EPOCH":"2026-03-16T20:00:01.999008","MEAN_MOTION":15.56130867,"ECCENTRICITY":0.000132,"INCLINATION":42.9997,"RA_OF_ASC_NODE":228.2481,"ARG_OF_PERICENTER":283.3832,"MEAN_ANOMALY":262.9014,"EPHEMERIS_TYPE":0,"CLASSIFICATION_TYPE":"U","NORAD_CAT_ID":67842,"ELEMENT_SET_NO":999,"REV_AT_EPOCH":581,"BSTAR":-0.029119,"MEAN_MOTION_DOT":-0.01851335,"MEAN_MOTION_DDOT":0},{"OBJECT_NAME":"STARLINK-36589","OBJECT_ID":"2026-033Y","EPOCH":"2026-03-16T20:00:01.999008","MEAN_MOTION":15.57180125,"ECCENTRICITY":0.0001268,"INCLINATION":42.9999,"RA_OF_ASC_NODE":228.1808,"ARG_OF_PERICENTER":278.8421,"MEAN_ANOMALY":294.5447,"EPHEMERIS_TYPE":0,"CLASSIFICATION_TYPE":"U","NORAD_CAT_ID":67843,"ELEMENT_SET_NO":999,"REV_AT_EPOCH":581,"BSTAR":-0.028075,"MEAN_MOTION_DOT":-0.01856278,"MEAN_MOTION_DDOT":0},{"OBJECT_NAME":"STARLINK-36598","OBJECT_ID":"2026-033Z","EPOCH":"2026-03-16T20:00:01.999008","MEAN_MOTION":15.53955196,"ECCENTRICITY":0.0001524,"INCLINATION":43,"RA_OF_ASC_NODE":228.3516,"ARG_OF_PERICENTER":286.8153,"MEAN_ANOMALY":217.6179,"EPHEMERIS_TYPE":0,"CLASSIFICATION_TYPE":"U","NORAD_CAT_ID":67844,"ELEMENT_SET_NO":999,"REV_AT_EPOCH":581,"BSTAR":-0.031428,"MEAN_MOTION_DOT":-0.01843889,"MEAN_MOTION_DDOT":0}]
